     3.04           N: GNSS NAV DATA    S: SBAS             RINEX VERSION / TYPE
sbf2rin-15.6.1                          20240223 000610 UTC PGM / RUN BY / DATE 
                                                            COMMENT             
HRAO                                    MARKER NAME         COMMENT
30302M004                               MARKER NUMBER       COMMENT
  5085352.5970  2668395.9920 -2768731.5510                  COMMENT
This data is provided as a public service by NASA/JPL.      COMMENT
No warranty is expressed or implied regarding suitability   COMMENT
for use.  For further information, contact:                 COMMENT
ggnops at jpl dot nasa dot gov                              COMMENT
                                                            END OF HEADER       
S27 2024 02 22 20 38 24 0.000000000000E+00 0.000000000000E+00 4.198790000000E+05
     2.418311832000E+04 1.446875000000E-03-2.375000000000E-07 6.300000000000E+01
     3.456636408000E+04-3.041875000000E-03 7.500000000000E-08 3.276700000000E+04
    -4.301600000000E+00 6.840000000000E-04 0.000000000000E+00 9.000000000000E+00
S28 2024 02 22 20 38 24 0.000000000000E+00 0.000000000000E+00 4.198790000000E+05
     5.139665600000E+03-2.162500000000E-04-1.625000000000E-07 6.300000000000E+01
     4.185039856000E+04-1.141875000000E-03 3.750000000000E-08 3.276700000000E+04
    -5.276480000000E+01 9.760000000000E-04 3.125000000000E-07 9.000000000000E+00
S44 2024 02 22 20 38 24-1.974403858185E-07 0.000000000000E+00 4.199120000000E+05
     7.299895280000E+03 2.460625000000E-03 5.000000000000E-08 6.300000000000E+01
     4.152854032000E+04 6.650000000000E-04-1.250000000000E-07 3.276700000000E+04
     6.425036000000E+02-1.072640000000E-01-1.687500000000E-06 6.000000000000E+01
S23 2024 02 22 20 38 40 0.000000000000E+00 0.000000000000E+00 4.199260000000E+05
     3.866796400000E+04 0.000000000000E+00 0.000000000000E+00 6.300000000000E+01
     1.681330800000E+04 0.000000000000E+00 0.000000000000E+00 3.276700000000E+04
     0.000000000000E+00 0.000000000000E+00 0.000000000000E+00 2.500000000000E+01
S48 2024 02 22 20 39 12 0.000000000000E+00 0.000000000000E+00 4.199800000000E+05
     3.734133360000E+04-3.056250000000E-04 0.000000000000E+00 3.100000000000E+01
     1.959555344000E+04-1.168750000000E-03 0.000000000000E+00 2.000000000000E+00
     1.025680000000E+01-6.920000000000E-04 0.000000000000E+00 0.000000000000E+00
S36 2024 02 22 20 40 16 0.000000000000E+00 0.000000000000E+00 4.200220000000E+05
     4.200368800000E+04 0.000000000000E+00 0.000000000000E+00 6.300000000000E+01
     3.674846960000E+03 0.000000000000E+00 0.000000000000E+00 3.276700000000E+04
     0.000000000000E+00 0.000000000000E+00 0.000000000000E+00 1.100000000000E+01
S44 2024 02 22 20 40 32-1.974403858185E-07 0.000000000000E+00 4.200320000000E+05
     7.300211200000E+03 2.475000000000E-03 5.000000000000E-08 6.300000000000E+01
     4.152862320000E+04 6.300000000000E-04-1.250000000000E-07 3.276700000000E+04
     6.287456000000E+02-1.076960000000E-01-1.625000000000E-06 6.000000000000E+01
S23 2024 02 22 20 41 04 0.000000000000E+00 0.000000000000E+00 4.200740000000E+05
     3.866796400000E+04 0.000000000000E+00 0.000000000000E+00 6.300000000000E+01
     1.681330800000E+04 0.000000000000E+00 0.000000000000E+00 3.276700000000E+04
     0.000000000000E+00 0.000000000000E+00 0.000000000000E+00 2.600000000000E+01
S48 2024 02 22 20 40 16 0.000000000000E+00 0.000000000000E+00 4.200880000000E+05
     3.734131384000E+04-3.106250000000E-04 0.000000000000E+00 3.100000000000E+01
     1.959547880000E+04-1.163125000000E-03 0.000000000000E+00 2.000000000000E+00
     1.021240000000E+01-6.960000000000E-04 0.000000000000E+00 0.000000000000E+00
S27 2024 02 22 20 42 40 0.000000000000E+00 0.000000000000E+00 4.201370000000E+05
     2.418349248000E+04 1.391875000000E-03-2.375000000000E-07 6.300000000000E+01
     3.456559640000E+04-3.018125000000E-03 7.500000000000E-08 3.276700000000E+04
    -4.128400000000E+00 6.920000000000E-04 0.000000000000E+00 1.000000000000E+01
S28 2024 02 22 20 42 40 0.000000000000E+00 0.000000000000E+00 4.201370000000E+05
     5.139600560000E+03-2.593750000000E-04-1.625000000000E-07 6.300000000000E+01
     4.185009248000E+04-1.136875000000E-03 3.750000000000E-08 3.276700000000E+04
    -5.250320000000E+01 1.052000000000E-03 3.125000000000E-07 1.000000000000E+01
S44 2024 02 22 20 42 40-1.974403858185E-07 0.000000000000E+00 4.201520000000E+05
     7.300529040000E+03 2.489375000000E-03 5.000000000000E-08 6.300000000000E+01
     4.152870168000E+04 5.950000000000E-04-1.375000000000E-07 3.276700000000E+04
     6.149328000000E+02-1.081200000000E-01-1.625000000000E-06 6.000000000000E+01
S36 2024 02 22 20 42 40 0.000000000000E+00 0.000000000000E+00 4.201700000000E+05
     4.200368800000E+04 0.000000000000E+00 0.000000000000E+00 6.300000000000E+01
     3.674846960000E+03 0.000000000000E+00 0.000000000000E+00 3.276700000000E+04
     0.000000000000E+00 0.000000000000E+00 0.000000000000E+00 1.200000000000E+01
S48 2024 02 22 20 42 24 0.000000000000E+00 0.000000000000E+00 4.202080000000E+05
     3.734127344000E+04-3.206250000000E-04 0.000000000000E+00 3.100000000000E+01
     1.959533072000E+04-1.151250000000E-03 0.000000000000E+00 2.000000000000E+00
     1.012280000000E+01-7.040000000000E-04 0.000000000000E+00 0.000000000000E+00
S23 2024 02 22 20 43 28 0.000000000000E+00 0.000000000000E+00 4.202180000000E+05
     3.866796400000E+04 0.000000000000E+00 0.000000000000E+00 6.300000000000E+01
     1.681330800000E+04 0.000000000000E+00 0.000000000000E+00 3.276700000000E+04
     0.000000000000E+00 0.000000000000E+00 0.000000000000E+00 2.700000000000E+01
S44 2024 02 22 20 44 48-1.974403858185E-07 0.000000000000E+00 4.202720000000E+05
     7.300848560000E+03 2.503125000000E-03 5.000000000000E-08 6.300000000000E+01
     4.152877560000E+04 5.593750000000E-04-1.375000000000E-07 3.276700000000E+04
     6.010668000000E+02-1.085320000000E-01-1.562500000000E-06 6.000000000000E+01
S36 2024 02 22 20 45 04 0.000000000000E+00 0.000000000000E+00 4.203140000000E+05
     4.200368800000E+04 0.000000000000E+00 0.000000000000E+00 6.300000000000E+01
     3.674846960000E+03 0.000000000000E+00 0.000000000000E+00 3.276700000000E+04
     0.000000000000E+00 0.000000000000E+00 0.000000000000E+00 1.300000000000E+01
S48 2024 02 22 20 44 32 0.000000000000E+00 0.000000000000E+00 4.203160000000E+05
     3.734123176000E+04-3.306250000000E-04 0.000000000000E+00 3.100000000000E+01
     1.959518408000E+04-1.139375000000E-03 0.000000000000E+00 2.000000000000E+00
     1.003200000000E+01-7.120000000000E-04 0.000000000000E+00 0.000000000000E+00
S23 2024 02 22 20 45 52 0.000000000000E+00 0.000000000000E+00 4.203620000000E+05
     3.866796400000E+04 0.000000000000E+00 0.000000000000E+00 6.300000000000E+01
     1.681330800000E+04 0.000000000000E+00 0.000000000000E+00 3.276700000000E+04
     0.000000000000E+00 0.000000000000E+00 0.000000000000E+00 2.800000000000E+01
S27 2024 02 22 20 46 56 0.000000000000E+00 0.000000000000E+00 4.203900000000E+05
     2.418384872000E+04 1.335000000000E-03-2.375000000000E-07 6.300000000000E+01
     3.456483112000E+04-2.995625000000E-03 7.500000000000E-08 3.276700000000E+04
    -3.953200000000E+00 6.960000000000E-04 0.000000000000E+00 1.100000000000E+01
S28 2024 02 22 20 46 56 0.000000000000E+00 0.000000000000E+00 4.203900000000E+05
     5.139524640000E+03-3.025000000000E-04-1.625000000000E-07 6.300000000000E+01
     4.184978864000E+04-1.130625000000E-03 3.750000000000E-08 3.276700000000E+04
    -5.222320000000E+01 1.124000000000E-03 2.500000000000E-07 1.100000000000E+01
S44 2024 02 22 20 46 56-1.974403858185E-07 0.000000000000E+00 4.203920000000E+05
     7.301169840000E+03 2.515625000000E-03 5.000000000000E-08 6.300000000000E+01
     4.152884488000E+04 5.231250000000E-04-1.375000000000E-07 3.276700000000E+04
     5.871484000000E+02-1.089360000000E-01-1.562500000000E-06 6.000000000000E+01
S48 2024 02 22 20 46 40 0.000000000000E+00 0.000000000000E+00 4.204360000000E+05
     3.734118880000E+04-3.406250000000E-04 0.000000000000E+00 3.100000000000E+01
     1.959503904000E+04-1.126875000000E-03 0.000000000000E+00 2.000000000000E+00
     9.940800000000E+00-7.200000000000E-04 0.000000000000E+00 0.000000000000E+00
S36 2024 02 22 20 47 28 0.000000000000E+00 0.000000000000E+00 4.204580000000E+05
     4.200368800000E+04 0.000000000000E+00 0.000000000000E+00 6.300000000000E+01
     3.674846960000E+03 0.000000000000E+00 0.000000000000E+00 3.276700000000E+04
     0.000000000000E+00 0.000000000000E+00 0.000000000000E+00 1.400000000000E+01
S23 2024 02 22 20 48 16 0.000000000000E+00 0.000000000000E+00 4.205100000000E+05
     3.866796400000E+04 0.000000000000E+00 0.000000000000E+00 6.300000000000E+01
     1.681330800000E+04 0.000000000000E+00 0.000000000000E+00 3.276700000000E+04
     0.000000000000E+00 0.000000000000E+00 0.000000000000E+00 2.900000000000E+01
S44 2024 02 22 20 48 00-1.974403858185E-07 0.000000000000E+00 4.205120000000E+05
     7.301331040000E+03 2.521875000000E-03 3.750000000000E-08 6.300000000000E+01
     4.152887776000E+04 5.050000000000E-04-1.375000000000E-07 3.276700000000E+04
     5.801700000000E+02-1.091360000000E-01-1.500000000000E-06 6.000000000000E+01
S48 2024 02 22 20 48 48 0.000000000000E+00 0.000000000000E+00 4.205440000000E+05
     3.734114448000E+04-3.506250000000E-04 0.000000000000E+00 3.100000000000E+01
     1.959489560000E+04-1.115000000000E-03 0.000000000000E+00 2.000000000000E+00
     9.848400000000E+00-7.240000000000E-04 0.000000000000E+00 0.000000000000E+00
S36 2024 02 22 20 49 52 0.000000000000E+00 0.000000000000E+00 4.206060000000E+05
     4.200368800000E+04 0.000000000000E+00 0.000000000000E+00 6.300000000000E+01
     3.674846960000E+03 0.000000000000E+00 0.000000000000E+00 3.276700000000E+04
     0.000000000000E+00 0.000000000000E+00 0.000000000000E+00 1.500000000000E+01
